KUIPER-00079            
1 64826U 25151L   25343.40510473  .00008362  00000+0  11234-2 0  9992
2 64826  51.9000 339.8084 0011492 303.0733  56.9125 14.79944418 23132
KUIPER-00080            
1 64827U 25151M   25343.43861725  .00008197  00000+0  10996-2 0  9995
2 64827  51.9008 339.6608 0005853 317.8422  42.2089 14.80055335 21940
KUIPER-00082            
1 64828U 25151N   25343.21587948 -.00004879  00000+0 -61093-3 0  9994
2 64828  51.9022 328.1605 0004695 343.9349  16.1464 14.79953672 22080
KUIPER-00083            
1 64829U 25151P   25343.27539515  .00006299  00000+0  85450-3 0  9997
2 64829  51.9016 335.3955 0011216 302.8006  57.1876 14.79904737 23174
KUIPER-00084            
1 64830U 25151Q   25343.39956783  .00007088  00000+0  95619-3 0  9997
2 64830  51.9016 344.8312 0011790 277.3772  82.5850 14.79970506 21866
KUIPER-00085            
1 64831U 25151R   25343.18210262  .00005180  00000+0  70752-3 0  9992
2 64831  51.9038 328.3249 0007111 319.3571  40.6860 14.79952950 22076
KUIPER-00086            
1 64832U 25151S   25343.23883043  .00006727  00000+0  90941-3 0  9992
2 64832  51.9023 338.0618 0010944 302.1575  57.8325 14.79958148 21947
KUIPER-00087            
1 64833U 25151T   25343.12257659  .00005532  00000+0  75273-3 0  9993
2 64833  51.9005 321.0699 0000970  12.7567 347.3420 14.80005166 22165
