<?xml version="1.0" encoding="UTF-8"?>
<ndm xmlns:xsi="http://www.w3.org/2001/XMLSchema-instance" xsi:noNamespaceSchemaLocation="https://sanaregistry.org/r/ndmxml_unqualified/ndmxml-2.0.0-master-2.0.xsd">
<omm id="CCSDS_OMM_VERS" version="2.0">
<header><CREATION_DATE/><ORIGINATOR/></header><body><segment><metadata><OBJECT_NAME>KUIPER-00079</OBJECT_NAME><OBJECT_ID>2025-151L</OBJECT_ID><CENTER_NAME>EARTH</CENTER_NAME><REF_FRAME>TEME</REF_FRAME><TIME_SYSTEM>UTC</TIME_SYSTEM><MEAN_ELEMENT_THEORY>SGP4</MEAN_ELEMENT_THEORY></metadata><data><meanElements><EPOCH>2025-12-09T09:43:21.048672</EPOCH><MEAN_MOTION>14.79944418</MEAN_MOTION><ECCENTRICITY>.00114929</ECCENTRICITY><INCLINATION>51.9000</INCLINATION><RA_OF_ASC_NODE>339.8084</RA_OF_ASC_NODE><ARG_OF_PERICENTER>303.0733</ARG_OF_PERICENTER><MEAN_ANOMALY>56.9125</MEAN_ANOMALY></meanElements><tleParameters><EPHEMERIS_TYPE>0</EPHEMERIS_TYPE><CLASSIFICATION_TYPE>U</CLASSIFICATION_TYPE><NORAD_CAT_ID>64826</NORAD_CAT_ID><ELEMENT_SET_NO>999</ELEMENT_SET_NO><REV_AT_EPOCH>2313</REV_AT_EPOCH><BSTAR>.11233838E-2</BSTAR><MEAN_MOTION_DOT>.8362E-4</MEAN_MOTION_DOT><MEAN_MOTION_DDOT>0</MEAN_MOTION_DDOT></tleParameters></data></segment></body></omm>
<omm id="CCSDS_OMM_VERS" version="2.0">
<header><CREATION_DATE/><ORIGINATOR/></header><body><segment><metadata><OBJECT_NAME>KUIPER-00080</OBJECT_NAME><OBJECT_ID>2025-151M</OBJECT_ID><CENTER_NAME>EARTH</CENTER_NAME><REF_FRAME>TEME</REF_FRAME><TIME_SYSTEM>UTC</TIME_SYSTEM><MEAN_ELEMENT_THEORY>SGP4</MEAN_ELEMENT_THEORY></metadata><data><meanElements><EPOCH>2025-12-09T10:31:36.530400</EPOCH><MEAN_MOTION>14.80055335</MEAN_MOTION><ECCENTRICITY>.00058539</ECCENTRICITY><INCLINATION>51.9008</INCLINATION><RA_OF_ASC_NODE>339.6608</RA_OF_ASC_NODE><ARG_OF_PERICENTER>317.8422</ARG_OF_PERICENTER><MEAN_ANOMALY>42.2089</MEAN_ANOMALY></meanElements><tleParameters><EPHEMERIS_TYPE>0</EPHEMERIS_TYPE><CLASSIFICATION_TYPE>U</CLASSIFICATION_TYPE><NORAD_CAT_ID>64827</NORAD_CAT_ID><ELEMENT_SET_NO>999</ELEMENT_SET_NO><REV_AT_EPOCH>2194</REV_AT_EPOCH><BSTAR>.10996209E-2</BSTAR><MEAN_MOTION_DOT>.8197E-4</MEAN_MOTION_DOT><MEAN_MOTION_DDOT>0</MEAN_MOTION_DDOT></tleParameters></data></segment></body></omm>
<omm id="CCSDS_OMM_VERS" version="2.0">
<header><CREATION_DATE/><ORIGINATOR/></header><body><segment><metadata><OBJECT_NAME>KUIPER-00082</OBJECT_NAME><OBJECT_ID>2025-151N</OBJECT_ID><CENTER_NAME>EARTH</CENTER_NAME><REF_FRAME>TEME</REF_FRAME><TIME_SYSTEM>UTC</TIME_SYSTEM><MEAN_ELEMENT_THEORY>SGP4</MEAN_ELEMENT_THEORY></metadata><data><meanElements><EPOCH>2025-12-09T05:10:51.987072</EPOCH><MEAN_MOTION>14.79953672</MEAN_MOTION><ECCENTRICITY>.0004695</ECCENTRICITY><INCLINATION>51.9022</INCLINATION><RA_OF_ASC_NODE>328.1605</RA_OF_ASC_NODE><ARG_OF_PERICENTER>343.9349</ARG_OF_PERICENTER><MEAN_ANOMALY>16.1464</MEAN_ANOMALY></meanElements><tleParameters><EPHEMERIS_TYPE>0</EPHEMERIS_TYPE><CLASSIFICATION_TYPE>U</CLASSIFICATION_TYPE><NORAD_CAT_ID>64828</NORAD_CAT_ID><ELEMENT_SET_NO>999</ELEMENT_SET_NO><REV_AT_EPOCH>2208</REV_AT_EPOCH><BSTAR>-.61093E-3</BSTAR><MEAN_MOTION_DOT>-.4879E-4</MEAN_MOTION_DOT><MEAN_MOTION_DDOT>0</MEAN_MOTION_DDOT></tleParameters></data></segment></body></omm>
<omm id="CCSDS_OMM_VERS" version="2.0">
<header><CREATION_DATE/><ORIGINATOR/></header><body><segment><metadata><OBJECT_NAME>KUIPER-00083</OBJECT_NAME><OBJECT_ID>2025-151P</OBJECT_ID><CENTER_NAME>EARTH</CENTER_NAME><REF_FRAME>TEME</REF_FRAME><TIME_SYSTEM>UTC</TIME_SYSTEM><MEAN_ELEMENT_THEORY>SGP4</MEAN_ELEMENT_THEORY></metadata><data><meanElements><EPOCH>2025-12-09T06:36:34.140960</EPOCH><MEAN_MOTION>14.79904737</MEAN_MOTION><ECCENTRICITY>.0011216</ECCENTRICITY><INCLINATION>51.9016</INCLINATION><RA_OF_ASC_NODE>335.3955</RA_OF_ASC_NODE><ARG_OF_PERICENTER>302.8006</ARG_OF_PERICENTER><MEAN_ANOMALY>57.1876</MEAN_ANOMALY></meanElements><tleParameters><EPHEMERIS_TYPE>0</EPHEMERIS_TYPE><CLASSIFICATION_TYPE>U</CLASSIFICATION_TYPE><NORAD_CAT_ID>64829</NORAD_CAT_ID><ELEMENT_SET_NO>999</ELEMENT_SET_NO><REV_AT_EPOCH>2317</REV_AT_EPOCH><BSTAR>.8545E-3</BSTAR><MEAN_MOTION_DOT>.6299E-4</MEAN_MOTION_DOT><MEAN_MOTION_DDOT>0</MEAN_MOTION_DDOT></tleParameters></data></segment></body></omm>
<omm id="CCSDS_OMM_VERS" version="2.0">
<header><CREATION_DATE/><ORIGINATOR/></header><body><segment><metadata><OBJECT_NAME>KUIPER-00084</OBJECT_NAME><OBJECT_ID>2025-151Q</OBJECT_ID><CENTER_NAME>EARTH</CENTER_NAME><REF_FRAME>TEME</REF_FRAME><TIME_SYSTEM>UTC</TIME_SYSTEM><MEAN_ELEMENT_THEORY>SGP4</MEAN_ELEMENT_THEORY></metadata><data><meanElements><EPOCH>2025-12-09T09:35:22.660512</EPOCH><MEAN_MOTION>14.79970506</MEAN_MOTION><ECCENTRICITY>.00117905</ECCENTRICITY><INCLINATION>51.9016</INCLINATION><RA_OF_ASC_NODE>344.8312</RA_OF_ASC_NODE><ARG_OF_PERICENTER>277.3772</ARG_OF_PERICENTER><MEAN_ANOMALY>82.5850</MEAN_ANOMALY></meanElements><tleParameters><EPHEMERIS_TYPE>0</EPHEMERIS_TYPE><CLASSIFICATION_TYPE>U</CLASSIFICATION_TYPE><NORAD_CAT_ID>64830</NORAD_CAT_ID><ELEMENT_SET_NO>999</ELEMENT_SET_NO><REV_AT_EPOCH>2186</REV_AT_EPOCH><BSTAR>.95619056E-3</BSTAR><MEAN_MOTION_DOT>.7088E-4</MEAN_MOTION_DOT><MEAN_MOTION_DDOT>0</MEAN_MOTION_DDOT></tleParameters></data></segment></body></omm>
<omm id="CCSDS_OMM_VERS" version="2.0">
<header><CREATION_DATE/><ORIGINATOR/></header><body><segment><metadata><OBJECT_NAME>KUIPER-00085</OBJECT_NAME><OBJECT_ID>2025-151R</OBJECT_ID><CENTER_NAME>EARTH</CENTER_NAME><REF_FRAME>TEME</REF_FRAME><TIME_SYSTEM>UTC</TIME_SYSTEM><MEAN_ELEMENT_THEORY>SGP4</MEAN_ELEMENT_THEORY></metadata><data><meanElements><EPOCH>2025-12-09T04:22:13.666368</EPOCH><MEAN_MOTION>14.79952950</MEAN_MOTION><ECCENTRICITY>.00071114</ECCENTRICITY><INCLINATION>51.9038</INCLINATION><RA_OF_ASC_NODE>328.3249</RA_OF_ASC_NODE><ARG_OF_PERICENTER>319.3571</ARG_OF_PERICENTER><MEAN_ANOMALY>40.6860</MEAN_ANOMALY></meanElements><tleParameters><EPHEMERIS_TYPE>0</EPHEMERIS_TYPE><CLASSIFICATION_TYPE>U</CLASSIFICATION_TYPE><NORAD_CAT_ID>64831</NORAD_CAT_ID><ELEMENT_SET_NO>999</ELEMENT_SET_NO><REV_AT_EPOCH>2207</REV_AT_EPOCH><BSTAR>.7075212E-3</BSTAR><MEAN_MOTION_DOT>.518E-4</MEAN_MOTION_DOT><MEAN_MOTION_DDOT>0</MEAN_MOTION_DDOT></tleParameters></data></segment></body></omm>
<omm id="CCSDS_OMM_VERS" version="2.0">
<header><CREATION_DATE/><ORIGINATOR/></header><body><segment><metadata><OBJECT_NAME>KUIPER-00086</OBJECT_NAME><OBJECT_ID>2025-151S</OBJECT_ID><CENTER_NAME>EARTH</CENTER_NAME><REF_FRAME>TEME</REF_FRAME><TIME_SYSTEM>UTC</TIME_SYSTEM><MEAN_ELEMENT_THEORY>SGP4</MEAN_ELEMENT_THEORY></metadata><data><meanElements><EPOCH>2025-12-09T05:43:54.949152</EPOCH><MEAN_MOTION>14.79958148</MEAN_MOTION><ECCENTRICITY>.0010944</ECCENTRICITY><INCLINATION>51.9023</INCLINATION><RA_OF_ASC_NODE>338.0618</RA_OF_ASC_NODE><ARG_OF_PERICENTER>302.1575</ARG_OF_PERICENTER><MEAN_ANOMALY>57.8325</MEAN_ANOMALY></meanElements><tleParameters><EPHEMERIS_TYPE>0</EPHEMERIS_TYPE><CLASSIFICATION_TYPE>U</CLASSIFICATION_TYPE><NORAD_CAT_ID>64832</NORAD_CAT_ID><ELEMENT_SET_NO>999</ELEMENT_SET_NO><REV_AT_EPOCH>2194</REV_AT_EPOCH><BSTAR>.90941E-3</BSTAR><MEAN_MOTION_DOT>.6727E-4</MEAN_MOTION_DOT><MEAN_MOTION_DDOT>0</MEAN_MOTION_DDOT></tleParameters></data></segment></body></omm>
<omm id="CCSDS_OMM_VERS" version="2.0">
<header><CREATION_DATE/><ORIGINATOR/></header><body><segment><metadata><OBJECT_NAME>KUIPER-00087</OBJECT_NAME><OBJECT_ID>2025-151T</OBJECT_ID><CENTER_NAME>EARTH</CENTER_NAME><REF_FRAME>TEME</REF_FRAME><TIME_SYSTEM>UTC</TIME_SYSTEM><MEAN_ELEMENT_THEORY>SGP4</MEAN_ELEMENT_THEORY></metadata><data><meanElements><EPOCH>2025-12-09T02:56:30.617376</EPOCH><MEAN_MOTION>14.80005166</MEAN_MOTION><ECCENTRICITY>.00009708</ECCENTRICITY><INCLINATION>51.9005</INCLINATION><RA_OF_ASC_NODE>321.0699</RA_OF_ASC_NODE><ARG_OF_PERICENTER>12.7567</ARG_OF_PERICENTER><MEAN_ANOMALY>347.3420</MEAN_ANOMALY></meanElements><tleParameters><EPHEMERIS_TYPE>0</EPHEMERIS_TYPE><CLASSIFICATION_TYPE>U</CLASSIFICATION_TYPE><NORAD_CAT_ID>64833</NORAD_CAT_ID><ELEMENT_SET_NO>999</ELEMENT_SET_NO><REV_AT_EPOCH>2216</REV_AT_EPOCH><BSTAR>.7527322E-3</BSTAR><MEAN_MOTION_DOT>.5532E-4</MEAN_MOTION_DOT><MEAN_MOTION_DDOT>0</MEAN_MOTION_DDOT></tleParameters></data></segment></body></omm>

</ndm>
